[
    {
        "Altitude(m)": 716936.5170862338,
        "Argument of Periapsis(deg)": 0.007973084830638947,
        "Eccentricity": 0.0,
        "Inclination(deg)": 45.0,
        "Latitude(deg)": -42.85838267093124,
        "Longitude(deg)": 166.82543362376347,
        "Mean Anomaly(deg)": 253.5277516532366,
        "RAAN(deg)": 19.992473640979256,
        "Satellite Name": "Constellation 1 103",
        "Satellite Number": 103,
        "Semi-Major Axis(m)": 7083131.272910544,
        "Time(s)": 133
    },
    {
        "Altitude(m)": 716943.3352929982,
        "Argument of Periapsis(deg)": 0.008033032836884352,
        "Eccentricity": 0.0,
        "Inclination(deg)": 45.0,
        "Latitude(deg)": -42.87487242106405,
        "Longitude(deg)": 166.9006384553999,
        "Mean Anomaly(deg)": 253.58845279348645,
        "RAAN(deg)": 19.99241705181369,
        "Satellite Name": "Constellation 1 103",
        "Satellite Number": 103,
        "Semi-Major Axis(m)": 7083131.272910544,
        "Time(s)": 134
    },
    {
        "Altitude(m)": 716950.1305580976,
        "Argument of Periapsis(deg)": 0.008092980843129758,
        "Eccentricity": 0.0,
        "Inclination(deg)": 45.0,
        "Latitude(deg)": -42.89130715707605,
        "Longitude(deg)": 166.97588536104675,
        "Mean Anomaly(deg)": 253.64915393373636,
        "RAAN(deg)": 19.99236046264812,
        "Satellite Name": "Constellation 1 103",
        "Satellite Number": 103,
        "Semi-Major Axis(m)": 7083131.272910544,
        "Time(s)": 135
    },
    {
        "Altitude(m)": 716956.9028565333,
        "Argument of Periapsis(deg)": 0.008152928849375162,
        "Eccentricity": 0.0,
        "Inclination(deg)": 45.0,
        "Latitude(deg)": -42.907686818934025,
        "Longitude(deg)": 167.05117424652377,
        "Mean Anomaly(deg)": 253.7098550739863,
        "RAAN(deg)": 19.99230387348255,
        "Satellite Name": "Constellation 1 103",
        "Satellite Number": 103,
        "Semi-Major Axis(m)": 7083131.272910544,
        "Time(s)": 136
    },
    {
        "Altitude(m)": 716963.6521633967,
        "Argument of Periapsis(deg)": 0.008212876855620568,
        "Eccentricity": 0.0,
        "Inclination(deg)": 45.0,
        "Latitude(deg)": -42.924011346724676,
        "Longitude(deg)": 167.12650501709285,
        "Mean Anomaly(deg)": 253.77055621423617,
        "RAAN(deg)": 19.99224728431698,
        "Satellite Name": "Constellation 1 103",
        "Satellite Number": 103,
        "Semi-Major Axis(m)": 7083131.272910544,
        "Time(s)": 137
    },
    {
        "Altitude(m)": 716970.3784538544,
        "Argument of Periapsis(deg)": 0.008272824861865974,
        "Eccentricity": 0.0,
        "Inclination(deg)": 45.0,
        "Latitude(deg)": -42.94028068065571,
        "Longitude(deg)": 167.2018775774578,
        "Mean Anomaly(deg)": 253.83125735448604,
        "RAAN(deg)": 19.992190695151407,
        "Satellite Name": "Constellation 1 103",
        "Satellite Number": 103,
        "Semi-Major Axis(m)": 7083131.272910544,
        "Time(s)": 138
    },
    {
        "Altitude(m)": 716977.0817031617,
        "Argument of Periapsis(deg)": 0.00833277286811138,
        "Eccentricity": 0.0,
        "Inclination(deg)": 45.0,
        "Latitude(deg)": -42.956494761056526,
        "Longitude(deg)": 167.27729183176447,
        "Mean Anomaly(deg)": 253.89195849473592,
        "RAAN(deg)": 19.99213410598584,
        "Satellite Name": "Constellation 1 103",
        "Satellite Number": 103,
        "Semi-Major Axis(m)": 7083131.272910544,
        "Time(s)": 139
    },
    {
        "Altitude(m)": 716983.7618866573,
        "Argument of Periapsis(deg)": 0.008392720874356788,
        "Eccentricity": 0.0,
        "Inclination(deg)": 45.0,
        "Latitude(deg)": -42.9726535283793,
        "Longitude(deg)": 167.35274768360108,
        "Mean Anomaly(deg)": 253.95265963498585,
        "RAAN(deg)": 19.99207751682027,
        "Satellite Name": "Constellation 1 103",
        "Satellite Number": 103,
        "Semi-Major Axis(m)": 7083131.272910544,
        "Time(s)": 140
    },
    {
        "Altitude(m)": 716990.4189797698,
        "Argument of Periapsis(deg)": 0.008452668880602192,
        "Eccentricity": 0.0,
        "Inclination(deg)": 45.0,
        "Latitude(deg)": -42.988756923199354,
        "Longitude(deg)": 167.42824486790082,
        "Mean Anomaly(deg)": 254.01336077523575,
        "RAAN(deg)": 19.9920209276547,
        "Satellite Name": "Constellation 1 103",
        "Satellite Number": 103,
        "Semi-Major Axis(m)": 7083131.272910544,
        "Time(s)": 141
    },
    {
        "Altitude(m)": 716997.0529579979,
        "Argument of Periapsis(deg)": 0.008512616886847598,
        "Eccentricity": 0.0,
        "Inclination(deg)": 45.0,
        "Latitude(deg)": -43.00480488621756,
        "Longitude(deg)": 167.50378362333018,
        "Mean Anomaly(deg)": 254.07406191548563,
        "RAAN(deg)": 19.991964338489133,
        "Satellite Name": "Constellation 1 103",
        "Satellite Number": 103,
        "Semi-Major Axis(m)": 7083131.272910544,
        "Time(s)": 142
    },
    {
        "Altitude(m)": 717003.6637969306,
        "Argument of Periapsis(deg)": 0.008572564893093004,
        "Eccentricity": 0.0,
        "Inclination(deg)": 45.0,
        "Latitude(deg)": -43.020797358259145,
        "Longitude(deg)": 167.579363683707,
        "Mean Anomaly(deg)": 254.13476305573553,
        "RAAN(deg)": 19.991907749323563,
        "Satellite Name": "Constellation 1 103",
        "Satellite Number": 103,
        "Semi-Major Axis(m)": 7083131.272910544,
        "Time(s)": 143
    },
    {
        "Altitude(m)": 717010.25147225,
        "Argument of Periapsis(deg)": 0.008632512899338408,
        "Eccentricity": 0.0,
        "Inclination(deg)": 45.0,
        "Latitude(deg)": -43.03673428027598,
        "Longitude(deg)": 167.65498495038926,
        "Mean Anomaly(deg)": 254.19546419598547,
        "RAAN(deg)": 19.991851160157992,
        "Satellite Name": "Constellation 1 103",
        "Satellite Number": 103,
        "Semi-Major Axis(m)": 7083131.272910544,
        "Time(s)": 144
    },
    {
        "Altitude(m)": 717016.8159597045,
        "Argument of Periapsis(deg)": 0.008692460905583814,
        "Eccentricity": 0.0,
        "Inclination(deg)": 45.0,
        "Latitude(deg)": -43.05261559334707,
        "Longitude(deg)": 167.7306473241769,
        "Mean Anomaly(deg)": 254.25616533623537,
        "RAAN(deg)": 19.991794570992425,
        "Satellite Name": "Constellation 1 103",
        "Satellite Number": 103,
        "Semi-Major Axis(m)": 7083131.272910544,
        "Time(s)": 145
    },
    {
        "Altitude(m)": 717023.3572351515,
        "Argument of Periapsis(deg)": 0.00875240891182922,
        "Eccentricity": 0.0,
        "Inclination(deg)": 45.0,
        "Latitude(deg)": -43.0684412386795,
        "Longitude(deg)": 167.8063507053131,
        "Mean Anomaly(deg)": 254.31686647648525,
        "RAAN(deg)": 19.99173798182685,
        "Satellite Name": "Constellation 1 103",
        "Satellite Number": 103,
        "Semi-Major Axis(m)": 7083131.272910544,
        "Time(s)": 146
    },
    {
        "Altitude(m)": 717029.8752745062,
        "Argument of Periapsis(deg)": 0.008812356918074627,
        "Eccentricity": 0.0,
        "Inclination(deg)": 45.0,
        "Latitude(deg)": -43.084211157609374,
        "Longitude(deg)": 167.88209499348417,
        "Mean Anomaly(deg)": 254.37756761673515,
        "RAAN(deg)": 19.991681392661285,
        "Satellite Name": "Constellation 1 103",
        "Satellite Number": 103,
        "Semi-Major Axis(m)": 7083131.272910544,
        "Time(s)": 147
    },
    {
        "Altitude(m)": 717036.3700537847,
        "Argument of Periapsis(deg)": 0.008872304924320031,
        "Eccentricity": 0.0,
        "Inclination(deg)": 45.0,
        "Latitude(deg)": -43.099925291602325,
        "Longitude(deg)": 167.9578799197226,
        "Mean Anomaly(deg)": 254.43826875698508,
        "RAAN(deg)": 19.991624803495714,
        "Satellite Name": "Constellation 1 103",
        "Satellite Number": 103,
        "Semi-Major Axis(m)": 7083131.272910544,
        "Time(s)": 148
    },
    {
        "Altitude(m)": 717042.8415490843,
        "Argument of Periapsis(deg)": 0.008932252930565437,
        "Eccentricity": 0.0,
        "Inclination(deg)": 45.0,
        "Latitude(deg)": -43.11558358225564,
        "Longitude(deg)": 168.033705718795,
        "Mean Anomaly(deg)": 254.4989698972349,
        "RAAN(deg)": 19.991568214330144,
        "Satellite Name": "Constellation 1 103",
        "Satellite Number": 103,
        "Semi-Major Axis(m)": 7083131.272910544,
        "Time(s)": 149
    },
    {
        "Altitude(m)": 717049.2897365817,
        "Argument of Periapsis(deg)": 0.008992200936810843,
        "Eccentricity": 0.0,
        "Inclination(deg)": 45.0,
        "Latitude(deg)": -43.13118597129741,
        "Longitude(deg)": 168.10957212062112,
        "Mean Anomaly(deg)": 254.55967103748483,
        "RAAN(deg)": 19.991511625164577,
        "Satellite Name": "Constellation 1 103",
        "Satellite Number": 103,
        "Semi-Major Axis(m)": 7083131.272910544,
        "Time(s)": 150
    },
    {
        "Altitude(m)": 717055.7145925484,
        "Argument of Periapsis(deg)": 0.009052148943056249,
        "Eccentricity": 0.0,
        "Inclination(deg)": 45.0,
        "Latitude(deg)": -43.146732400588654,
        "Longitude(deg)": 168.18547902266158,
        "Mean Anomaly(deg)": 254.6203721777347,
        "RAAN(deg)": 19.991455035999007,
        "Satellite Name": "Constellation 1 103",
        "Satellite Number": 103,
        "Semi-Major Axis(m)": 7083131.272910544,
        "Time(s)": 151
    }
]